GHGSAT-C1               
1 46278U 20061G   26198.26283594  .00028767  00000+0  20704-3 0  9996
2 46278  97.2089 284.4230 0001244 173.5357 186.5924 15.73561462328209
GHGSAT-C2               
1 47509U 21006DA  26198.07862235  .00003510  00000+0  95637-4 0  9995
2 47509  97.2128 244.8345 0006627  70.4965 289.6996 15.38121676304442
GHGSAT-C3               
1 52737U 22057F   26198.23492483  .00003679  00000+0  11193-3 0  9993
2 52737  97.6638 345.0303 0006133  28.6803 331.4776 15.34694202230140
GHGSAT-C5               
1 52744U 22057N   26198.33950265  .00003406  00000+0  10389-3 0  9993
2 52744  97.6724 346.7476 0006816  25.3695 334.7881 15.34670817230165
GHGSAT-C4               
1 52746U 22057Q   26198.12526266  .00003408  00000+0  10392-3 0  9998
2 52746  97.6564 343.7175 0005965  12.6512 347.4878 15.34679710230138
GHGSAT-C8               
1 56186U 23054J   26198.17916498  .00008928  00000+0  14061-3 0  9992
2 56186  97.2958 107.9278 0002652 353.9820   6.1402 15.53809688183094
GHGSAT-C6               
1 56204U 23054AC  26198.20981396  .00009322  00000+0  14686-3 0  9998
2 56204  97.3018 108.6640 0003313 295.3376  64.7534 15.53786026183113
GHGSAT-C7               
1 56209U 23054AH  26198.21274939  .00006663  00000+0  11859-3 0  9996
2 56209  97.2967 106.9731 0004872 294.0158  66.0583 15.50471988183043
GHGSAT-C12              
1 64529U 25135B   26198.25994048  .00001708  00000+0  81446-4 0  9991
2 64529  97.4773 312.8072 0006342  75.5799 284.6139 15.20452550 59393
GHGSAT-C13              
1 64548U 25135W   26198.24637125  .00002983  00000+0  13603-3 0  9996
2 64548  97.4805 313.4128 0001764  65.9543 294.1878 15.21415483 59427
