{"fetched_at":"2026-07-17T17:38:14.275Z","source":"https://celestrak.org/NORAD/elements/gp.php?NAME=GHGSAT&FORMAT=JSON","constellation":"ghgsat","records":[{"OBJECT_NAME":"GHGSAT-C1","OBJECT_ID":"2020-061G","EPOCH":"2026-07-17T06:18:29.025216","CLASSIFICATION_TYPE":"U","MEAN_MOTION":15.73561462,"ECCENTRICITY":0.00012448,"INCLINATION":97.2089,"RA_OF_ASC_NODE":284.423,"ARG_OF_PERICENTER":173.5357,"MEAN_ANOMALY":186.5924,"EPHEMERIS_TYPE":0,"NORAD_CAT_ID":46278,"ELEMENT_SET_NO":999,"REV_AT_EPOCH":32820,"BSTAR":0.00020703701,"MEAN_MOTION_DOT":0.00028767,"MEAN_MOTION_DDOT":0},{"OBJECT_NAME":"GHGSAT-C2","OBJECT_ID":"2021-006DA","EPOCH":"2026-07-17T01:53:12.971040","CLASSIFICATION_TYPE":"U","MEAN_MOTION":15.38121676,"ECCENTRICITY":0.00066277,"INCLINATION":97.2128,"RA_OF_ASC_NODE":244.8345,"ARG_OF_PERICENTER":70.4965,"MEAN_ANOMALY":289.6996,"EPHEMERIS_TYPE":0,"NORAD_CAT_ID":47509,"ELEMENT_SET_NO":999,"REV_AT_EPOCH":30444,"BSTAR":0.000095636613,"MEAN_MOTION_DOT":0.0000351,"MEAN_MOTION_DDOT":0},{"OBJECT_NAME":"GHGSAT-C3","OBJECT_ID":"2022-057F","EPOCH":"2026-07-17T05:38:17.505312","CLASSIFICATION_TYPE":"U","MEAN_MOTION":15.34694202,"ECCENTRICITY":0.00061338,"INCLINATION":97.6638,"RA_OF_ASC_NODE":345.0303,"ARG_OF_PERICENTER":28.6803,"MEAN_ANOMALY":331.4776,"EPHEMERIS_TYPE":0,"NORAD_CAT_ID":52737,"ELEMENT_SET_NO":999,"REV_AT_EPOCH":23014,"BSTAR":0.00011193183,"MEAN_MOTION_DOT":0.00003679,"MEAN_MOTION_DDOT":0},{"OBJECT_NAME":"GHGSAT-C5","OBJECT_ID":"2022-057N","EPOCH":"2026-07-17T08:08:53.028960","CLASSIFICATION_TYPE":"U","MEAN_MOTION":15.34670817,"ECCENTRICITY":0.0006816,"INCLINATION":97.6724,"RA_OF_ASC_NODE":346.7476,"ARG_OF_PERICENTER":25.3695,"MEAN_ANOMALY":334.7881,"EPHEMERIS_TYPE":0,"NORAD_CAT_ID":52744,"ELEMENT_SET_NO":999,"REV_AT_EPOCH":23016,"BSTAR":0.00010389416,"MEAN_MOTION_DOT":0.00003406,"MEAN_MOTION_DDOT":0},{"OBJECT_NAME":"GHGSAT-C4","OBJECT_ID":"2022-057Q","EPOCH":"2026-07-17T03:00:22.693824","CLASSIFICATION_TYPE":"U","MEAN_MOTION":15.3467971,"ECCENTRICITY":0.00059651,"INCLINATION":97.6564,"RA_OF_ASC_NODE":343.7175,"ARG_OF_PERICENTER":12.6512,"MEAN_ANOMALY":347.4878,"EPHEMERIS_TYPE":0,"NORAD_CAT_ID":52746,"ELEMENT_SET_NO":999,"REV_AT_EPOCH":23013,"BSTAR":0.00010392409,"MEAN_MOTION_DOT":0.00003408,"MEAN_MOTION_DDOT":0},{"OBJECT_NAME":"GHGSAT-C8","OBJECT_ID":"2023-054J","EPOCH":"2026-07-17T04:17:59.854272","CLASSIFICATION_TYPE":"U","MEAN_MOTION":15.53809688,"ECCENTRICITY":0.00026524,"INCLINATION":97.2958,"RA_OF_ASC_NODE":107.9278,"ARG_OF_PERICENTER":353.982,"MEAN_ANOMALY":6.1402,"EPHEMERIS_TYPE":0,"NORAD_CAT_ID":56186,"ELEMENT_SET_NO":999,"REV_AT_EPOCH":18309,"BSTAR":0.00014060777,"MEAN_MOTION_DOT":0.00008928,"MEAN_MOTION_DDOT":0},{"OBJECT_NAME":"GHGSAT-C6","OBJECT_ID":"2023-054AC","EPOCH":"2026-07-17T05:02:07.926144","CLASSIFICATION_TYPE":"U","MEAN_MOTION":15.53786026,"ECCENTRICITY":0.00033133,"INCLINATION":97.3018,"RA_OF_ASC_NODE":108.664,"ARG_OF_PERICENTER":295.3376,"MEAN_ANOMALY":64.7534,"EPHEMERIS_TYPE":0,"NORAD_CAT_ID":56204,"ELEMENT_SET_NO":999,"REV_AT_EPOCH":18311,"BSTAR":0.00014685651,"MEAN_MOTION_DOT":0.00009322,"MEAN_MOTION_DDOT":0},{"OBJECT_NAME":"GHGSAT-C7","OBJECT_ID":"2023-054AH","EPOCH":"2026-07-17T05:06:21.547296","CLASSIFICATION_TYPE":"U","MEAN_MOTION":15.50471988,"ECCENTRICITY":0.00048729,"INCLINATION":97.2967,"RA_OF_ASC_NODE":106.9731,"ARG_OF_PERICENTER":294.0158,"MEAN_ANOMALY":66.0583,"EPHEMERIS_TYPE":0,"NORAD_CAT_ID":56209,"ELEMENT_SET_NO":999,"REV_AT_EPOCH":18304,"BSTAR":0.00011859229,"MEAN_MOTION_DOT":0.00006663,"MEAN_MOTION_DDOT":0},{"OBJECT_NAME":"GHGSAT-C12","OBJECT_ID":"2025-135B","EPOCH":"2026-07-17T06:14:18.857472","CLASSIFICATION_TYPE":"U","MEAN_MOTION":15.2045255,"ECCENTRICITY":0.00063427,"INCLINATION":97.4773,"RA_OF_ASC_NODE":312.8072,"ARG_OF_PERICENTER":75.5799,"MEAN_ANOMALY":284.6139,"EPHEMERIS_TYPE":0,"NORAD_CAT_ID":64529,"ELEMENT_SET_NO":999,"REV_AT_EPOCH":5939,"BSTAR":0.000081446163,"MEAN_MOTION_DOT":0.00001708,"MEAN_MOTION_DDOT":0},{"OBJECT_NAME":"GHGSAT-C13","OBJECT_ID":"2025-135W","EPOCH":"2026-07-17T05:54:46.476000","CLASSIFICATION_TYPE":"U","MEAN_MOTION":15.21415483,"ECCENTRICITY":0.00017647,"INCLINATION":97.4805,"RA_OF_ASC_NODE":313.4128,"ARG_OF_PERICENTER":65.9543,"MEAN_ANOMALY":294.1878,"EPHEMERIS_TYPE":0,"NORAD_CAT_ID":64548,"ELEMENT_SET_NO":999,"REV_AT_EPOCH":5942,"BSTAR":0.00013603232,"MEAN_MOTION_DOT":0.00002983,"MEAN_MOTION_DDOT":0}]}
